WNISAT-1                
1 39423U 13066H   26065.95421227  .00002185  00000+0  40578-3 0  9990
2 39423  97.7037 222.4624 0163377 193.4928 166.1880 14.57859358651839
TRITON-1                
1 39427U 13066M   26066.17159968  .00003359  00000+0  40950-3 0  9997
2 39427  97.8297 338.3205 0090022 205.9569 153.7115 14.81180288658982
GOMX-1                  
1 39430U 13066Q   26066.16855450  .00001826  00000+0  28051-3 0  9994
2 39430  97.6565 273.0310 0130405  45.5255 315.6526 14.69084967654933
CUBEBUG-2 (LO-74)       
1 39440U 13066AA  26065.54755604  .00007643  00000+0  71771-3 0  9996
2 39440  97.8820  14.2158 0059087   9.5494 350.6833 14.92909829661674
NEE-02 KRYSAOR          
1 39441U 13066AB  26065.34825721  .00003888  00000+0  43158-3 0  9998
2 39441  97.8820   5.3792 0067976  47.8016 312.8942 14.86134829660922
FUNCUBE-1 (AO-73)       
1 39444U 13066AE  26065.85392794  .00011997  00000+0  77451-3 0  9999
2 39444  97.8191  35.3439 0036957 188.9589 171.0983 15.07846155664238
UWE-3                   
1 39446U 13066AG  26066.12144762  .00006179  00000+0  54125-3 0  9991
2 39446  97.8593  21.6435 0048664 301.1194  58.5257 14.96140822662314
BRITE-CA1 (TORONTO)     
1 40020U 14033L   26065.91084075  .00001677  00000+0  26032-3 0  9996
2 40020  97.9562 196.8362 0077789 243.9212 115.3975 14.72452777627161
DUCHIFAT-1              
1 40021U 14033M   26066.05234075  .00060805  00000+0  11017-2 0  9994
2 40021  98.0633 112.1690 0006412  92.6650 267.5333 15.49410411639860
NANOSATC-BR1            
1 40024U 14033Q   26066.03591817  .00020048  00000+0  73577-3 0  9990
2 40024  98.0842  89.5850 0004368 155.6453 204.4991 15.27990956638366
QB50P1                  
1 40025U 14033R   26066.00469717  .00011500  00000+0  59414-3 0  9998
2 40025  98.1010  70.1061 0007996 204.0446 156.0413 15.16446250637536
QB50P2                  
1 40032U 14033Y   26065.95295301  .00009908  00000+0  55514-3 0  9991
2 40032  98.0735  56.6033 0008432 150.0335 210.1379 15.13604250637196
PERSEUS-M2              
1 40037U 14033AD  26066.15078016  .00003082  00000+0  28609-3 0  9993
2 40037  97.9878  14.7077 0010164 281.3323  78.6754 14.95148611635533
PERSEUS-M1              
1 40039U 14033AF  26065.39497066  .00003567  00000+0  32945-3 0  9996
2 40039  97.9559   7.9297 0009907 281.0478  78.9628 14.95234871635278
POLYITAN-1              
1 40042U 14033AJ  26065.99197833  .00024202  00000+0  84897-3 0  9997
2 40042  98.1049  82.8355 0009144 135.4602 224.7372 15.29402657637951
TIGRISAT                
1 40043U 14033AK  26065.89421347  .00002966  00000+0  34861-3 0  9996
2 40043  97.7669 218.3641 0050551  51.3673 309.2051 14.84708950630446
AEROCUBE 6A             
1 40045U 14033AM  26065.92260728  .00007539  00000+0  65344-3 0  9997
2 40045  97.7120 234.1022 0039068 358.8215   1.2908 14.96791440631312
